{"type": "FeatureCollection", "features": [ {"type": "Feature", "properties": {"norad_id": 35759, "name": "COSMOS 2251 DEB", "group": "cosmos-2251-debris", "lat": -12.626727255138885, "lon": 53.095006478913426, "alt_km": 731.1347288567758, "timestamp": "2025-12-05T18:53:13.678339+00:00", "meta": {"OBJECT_NAME": "COSMOS 2251 DEB", "OBJECT_ID": "1993-036ARD", "EPOCH": "2025-12-02T09:41:30.767712", "MEAN_MOTION": 14.648293, "ECCENTRICITY": 0.00766899, "INCLINATION": 74.0385, "RA_OF_ASC_NODE": 235.9215, "ARG_OF_PERICENTER": 356.5872, "MEAN_ANOMALY": 3.4761, "EPHEMERIS_TYPE": 0, "CLASSIFICATION_TYPE": "U", "NORAD_CAT_ID": 35759, "ELEMENT_SET_NO": 999, "REV_AT_EPOCH": 65984, "BSTAR": 0.00048578617, "MEAN_MOTION_DOT": 2.675e-05, "MEAN_MOTION_DDOT": 0}, "tle": {"line1": "1 35759U 93036ARD 25336.40382833  .00002675  00000+0  48579-3 0  9995", "line2": "2 35759  74.0385 235.9215 0076689 356.5872   3.4761 14.64829300659847"}}, "geometry": {"type": "Point", "coordinates": [53.095006478913426, -12.626727255138885]}}, {"type": "Feature", "properties": {"norad_id": 35771, "name": "COSMOS 2251 DEB", "group": "cosmos-2251-debris", "lat": 53.04635905698501, "lon": -15.273551162095318, "alt_km": 993.2702093118914, "timestamp": "2025-12-05T18:53:13.678349+00:00", "meta": {"OBJECT_NAME": "COSMOS 2251 DEB", "OBJECT_ID": "1993-036ARR", "EPOCH": "2025-12-01T22:51:30.244896", "MEAN_MOTION": 14.12926683, "ECCENTRICITY": 0.02319351, "INCLINATION": 74.1552, "RA_OF_ASC_NODE": 329.2812, "ARG_OF_PERICENTER": 270.0606, "MEAN_ANOMALY": 87.396, "EPHEMERIS_TYPE": 0, "CLASSIFICATION_TYPE": "U", "NORAD_CAT_ID": 35771, "ELEMENT_SET_NO": 999, "REV_AT_EPOCH": 82708, "BSTAR": 0.0067662276, "MEAN_MOTION_DOT": 0.00016281, "MEAN_MOTION_DDOT": 0}, "tle": {"line1": "1 35771U 93036ARR 25335.95243339  .00016281  00000+0  67662-2 0  9996", "line2": "2 35771  74.1552 329.2812 0231935 270.0606  87.3960 14.12926683827080"}}, "geometry": {"type": "Point", "coordinates": [-15.273551162095318, 53.04635905698501]}}, {"type": "Feature", "properties": {"norad_id": 35773, "name": "COSMOS 2251 DEB", "group": "cosmos-2251-debris", "lat": 30.12496655539227, "lon": 164.57763334400485, "alt_km": 652.5756711032291, "timestamp": "2025-12-05T18:53:13.678360+00:00", "meta": {"OBJECT_NAME": "COSMOS 2251 DEB", "OBJECT_ID": "1993-036ART", "EPOCH": "2025-12-04T11:00:29.722176", "MEAN_MOTION": 14.6199811, "ECCENTRICITY": 0.0045998, "INCLINATION": 74.0077, "RA_OF_ASC_NODE": 356.7031, "ARG_OF_PERICENTER": 159.0683, "MEAN_ANOMALY": 201.2381, "EPHEMERIS_TYPE": 0, "CLASSIFICATION_TYPE": "U", "NORAD_CAT_ID": 35773, "ELEMENT_SET_NO": 999, "REV_AT_EPOCH": 86718, "BSTAR": 0.0012577, "MEAN_MOTION_DOT": 6.377e-05, "MEAN_MOTION_DDOT": 0}, "tle": {"line1": "1 35773U 93036ART 25338.45867734  .00006377  00000+0  12577-2 0  9997", "line2": "2 35773  74.0077 356.7031 0045998 159.0683 201.2381 14.61998110867181"}}, "geometry": {"type": "Point", "coordinates": [164.57763334400485, 30.12496655539227]}}, {"type": "Feature", "properties": {"norad_id": 35777, "name": "COSMOS 2251 DEB", "group": "cosmos-2251-debris", "lat": 73.55014847230711, "lon": 54.398597955475466, "alt_km": 1359.349367256429, "timestamp": "2025-12-05T18:53:13.678370+00:00", "meta": {"OBJECT_NAME": "COSMOS 2251 DEB", "OBJECT_ID": "1993-036ARX", "EPOCH": "2025-12-02T10:40:29.464608", "MEAN_MOTION": 13.41287955, "ECCENTRICITY": 0.04528031, "INCLINATION": 73.7709, "RA_OF_ASC_NODE": 339.1914, "ARG_OF_PERICENTER": 235.501, "MEAN_ANOMALY": 282.7283, "EPHEMERIS_TYPE": 0, "CLASSIFICATION_TYPE": "U", "NORAD_CAT_ID": 35777, "ELEMENT_SET_NO": 999, "REV_AT_EPOCH": 79546, "BSTAR": 0.00081766672, "MEAN_MOTION_DOT": 8.07e-06, "MEAN_MOTION_DDOT": 0}, "tle": {"line1": "1 35777U 93036ARX 25336.44478547  .00000807  00000+0  81767-3 0  9998", "line2": "2 35777  73.7709 339.1914 0452803 235.5010 282.7283 13.41287955795460"}}, "geometry": {"type": "Point", "coordinates": [54.398597955475466, 73.55014847230711]}}, {"type": "Feature", "properties": {"norad_id": 35784, "name": "COSMOS 2251 DEB", "group": "cosmos-2251-debris", "lat": 68.7197001102179, "lon": -124.5380004510701, "alt_km": 737.8718462842135, "timestamp": "2025-12-05T18:53:13.678380+00:00", "meta": {"OBJECT_NAME": "COSMOS 2251 DEB", "OBJECT_ID": "1993-036ASE", "EPOCH": "2025-11-30T02:37:28.354944", "MEAN_MOTION": 14.49985321, "ECCENTRICITY": 0.00421284, "INCLINATION": 74.0362, "RA_OF_ASC_NODE": 113.4211, "ARG_OF_PERICENTER": 246.5375, "MEAN_ANOMALY": 113.1355, "EPHEMERIS_TYPE": 0, "CLASSIFICATION_TYPE": "U", "NORAD_CAT_ID": 35784, "ELEMENT_SET_NO": 999, "REV_AT_EPOCH": 65523, "BSTAR": 0.00039422851, "MEAN_MOTION_DOT": 1.515e-05, "MEAN_MOTION_DDOT": 0}, "tle": {"line1": "1 35784U 93036ASE 25334.10935596  .00001515  00000+0  39423-3 0  9998", "line2": "2 35784  74.0362 113.4211 0042128 246.5375 113.1355 14.49985321655239"}}, "geometry": {"type": "Point", "coordinates": [-124.5380004510701, 68.7197001102179]}}, {"type": "Feature", "properties": {"norad_id": 35786, "name": "COSMOS 2251 DEB", "group": "cosmos-2251-debris", "lat": -19.675896954538434, "lon": 51.30722942761659, "alt_km": 700.0493065758847, "timestamp": "2025-12-05T18:53:13.678390+00:00", "meta": {"OBJECT_NAME": "COSMOS 2251 DEB", "OBJECT_ID": "1993-036ASG", "EPOCH": "2025-12-02T12:22:11.536320", "MEAN_MOTION": 14.66021148, "ECCENTRICITY": 0.00350306, "INCLINATION": 74.016, "RA_OF_ASC_NODE": 63.4983, "ARG_OF_PERICENTER": 195.5115, "MEAN_ANOMALY": 164.4984, "EPHEMERIS_TYPE": 0, "CLASSIFICATION_TYPE": "U", "NORAD_CAT_ID": 35786, "ELEMENT_SET_NO": 999, "REV_AT_EPOCH": 73258, "BSTAR": 0.0015897708, "MEAN_MOTION_DOT": 8.775e-05, "MEAN_MOTION_DDOT": 0}, "tle": {"line1": "1 35786U 93036ASG 25336.51541130  .00008775  00000+0  15898-2 0  9998", "line2": "2 35786  74.0160  63.4983 0035030 195.5115 164.4984 14.66021148732584"}}, "geometry": {"type": "Point", "coordinates": [51.30722942761659, -19.675896954538434]}}, {"type": "Feature", "properties": {"norad_id": 35789, "name": "COSMOS 2251 DEB", "group": "cosmos-2251-debris", "lat": 62.67322529279933, "lon": -29.234805413100194, "alt_km": 735.8607779077938, "timestamp": "2025-12-05T18:53:13.678400+00:00", "meta": {"OBJECT_NAME": "COSMOS 2251 DEB", "OBJECT_ID": "1993-036ASK", "EPOCH": "2025-12-04T04:07:13.820736", "MEAN_MOTION": 14.3597471, "ECCENTRICITY": 0.00471528, "INCLINATION": 74.0391, "RA_OF_ASC_NODE": 300.0971, "ARG_OF_PERICENTER": 41.8218, "MEAN_ANOMALY": 318.6522, "EPHEMERIS_TYPE": 0, "CLASSIFICATION_TYPE": "U", "NORAD_CAT_ID": 35789, "ELEMENT_SET_NO": 999, "REV_AT_EPOCH": 61104, "BSTAR": 0.00025299607, "MEAN_MOTION_DOT": 7.18e-06, "MEAN_MOTION_DDOT": 0}, "tle": {"line1": "1 35789U 93036ASK 25338.17168774  .00000718  00000+0  25300-3 0  9993", "line2": "2 35789  74.0391 300.0971 0047152  41.8218 318.6522 14.35974710611041"}}, "geometry": {"type": "Point", "coordinates": [-29.234805413100194, 62.67322529279933]}}, {"type": "Feature", "properties": {"norad_id": 35793, "name": "COSMOS 2251 DEB", "group": "cosmos-2251-debris", "lat": 42.13396763523766, "lon": -121.15827804214824, "alt_km": 628.3991965271434, "timestamp": "2025-12-05T18:53:13.678410+00:00", "meta": {"OBJECT_NAME": "COSMOS 2251 DEB", "OBJECT_ID": "1993-036ASP", "EPOCH": "2025-12-04T23:19:43.078368", "MEAN_MOTION": 14.7836131, "ECCENTRICITY": 0.0003165, "INCLINATION": 74.0414, "RA_OF_ASC_NODE": 75.4446, "ARG_OF_PERICENTER": 148.3826, "MEAN_ANOMALY": 331.8589, "EPHEMERIS_TYPE": 0, "CLASSIFICATION_TYPE": "U", "NORAD_CAT_ID": 35793, "ELEMENT_SET_NO": 999, "REV_AT_EPOCH": 65682, "BSTAR": 0.0041014, "MEAN_MOTION_DOT": 0.00029956, "MEAN_MOTION_DDOT": 0}, "tle": {"line1": "1 35793U 93036ASP 25338.97202637  .00029956  00000+0  41014-2 0  9997", "line2": "2 35793  74.0414  75.4446 0003165 148.3826 331.8589 14.78361310656824"}}, "geometry": {"type": "Point", "coordinates": [-121.15827804214824, 42.13396763523766]}}, {"type": "Feature", "properties": {"norad_id": 35824, "name": "COSMOS 2251 DEB", "group": "cosmos-2251-debris", "lat": -66.43334896706385, "lon": -77.61592008288824, "alt_km": 982.6279447088773, "timestamp": "2025-12-05T18:53:13.678420+00:00", "meta": {"OBJECT_NAME": "COSMOS 2251 DEB", "OBJECT_ID": "1993-036ASW", "EPOCH": "2025-12-03T12:05:08.597472", "MEAN_MOTION": 13.88357909, "ECCENTRICITY": 0.02501454, "INCLINATION": 73.8459, "RA_OF_ASC_NODE": 64.6657, "ARG_OF_PERICENTER": 152.4307, "MEAN_ANOMALY": 209.0351, "EPHEMERIS_TYPE": 0, "CLASSIFICATION_TYPE": "U", "NORAD_CAT_ID": 35824, "ELEMENT_SET_NO": 999, "REV_AT_EPOCH": 84099, "BSTAR": 0.0020735278, "MEAN_MOTION_DOT": 3.165e-05, "MEAN_MOTION_DDOT": 0}, "tle": {"line1": "1 35824U 93036ASW 25337.50357173  .00003165  00000+0  20735-2 0  9997", "line2": "2 35824  73.8459  64.6657 0250145 152.4307 209.0351 13.88357909840996"}}, "geometry": {"type": "Point", "coordinates": [-77.61592008288824, -66.43334896706385]}}, {"type": "Feature", "properties": {"norad_id": 35825, "name": "COSMOS 2251 DEB", "group": "cosmos-2251-debris", "lat": -13.790206253111148, "lon": 150.07047858200144, "alt_km": 1011.3532698664894, "timestamp": "2025-12-05T18:53:13.678431+00:00", "meta": {"OBJECT_NAME": "COSMOS 2251 DEB", "OBJECT_ID": "1993-036ASX", "EPOCH": "2025-11-18T20:38:01.180896", "MEAN_MOTION": 13.70825357, "ECCENTRICITY": 0.03535711, "INCLINATION": 74.1138, "RA_OF_ASC_NODE": 181.8907, "ARG_OF_PERICENTER": 283.1782, "MEAN_ANOMALY": 73.0118, "EPHEMERIS_TYPE": 0, "CLASSIFICATION_TYPE": "U", "NORAD_CAT_ID": 35825, "ELEMENT_SET_NO": 999, "REV_AT_EPOCH": 82181, "BSTAR": 0.0013809564, "MEAN_MOTION_DOT": 1.891e-05, "MEAN_MOTION_DDOT": 0}, "tle": {"line1": "1 35825U 93036ASX 25322.85973589  .00001891  00000+0  13810-2 0  9995", "line2": "2 35825  74.1138 181.8907 0353571 283.1782  73.0118 13.70825357821819"}}, "geometry": {"type": "Point", "coordinates": [150.07047858200144, -13.790206253111148]}}]}